GSAT-7                  
1 39234U 13044B   26158.43153741 -.00000062  00000+0  00000+0 0  9990
2 39234   0.0591 101.1393 0002979 189.8363 194.2127  1.00270853 45169
AMOS-4                  
1 39237U 13045A   26158.42980405  .00000022  00000+0  00000+0 0  9993
2 39237   0.0269  90.0680 0002542 325.1041  60.3929  1.00271156 46861
AEHF-3 (USA 246)        
1 39256U 13050A   26158.39975279  .00000043  00000+0  00000+0 0  9992
2 39256   5.2705  67.2715 0087808 188.0765  20.0905  1.00270153 45554
ASTRA 2E                
1 39285U 13056A   26158.27994052  .00000165  00000+0  00000+0 0  9992
2 39285   0.0687 320.3661 0002656 124.6345 299.9743  1.00273263 46316
FM-6                    
1 39360U 13058A   26158.46512902  .00000000  00000+0  00000+0 0  9997
2 39360   0.0094  45.4890 0001559  95.5877 165.8953  1.00260608 45972
RADUGA-1M 3             
1 39375U 13062A   26157.99621483  .00000166  00000+0  00000+0 0  9993
2 39375   5.9312  72.4820 0001515 272.2358 304.3100  1.00271649 46004
SES-8                   
1 39460U 13071A   26158.43569742 -.00000255  00000+0  00000+0 0  9997
2 39460   0.0155 312.3746 0002891 130.1456  65.1820  1.00271674 44335
INMARSAT 5-F1           
1 39476U 13073A   26158.42928405  .00000042  00000+0  00000+0 0  9993
2 39476   0.0183   1.6666 0000749 340.7315 130.6115  1.00270603 45488
TKSAT-1 (TUPAC KATARI)  
1 39481U 13075A   26158.47093572 -.00000180  00000+0  00000+0 0  9998
2 39481   0.0354 153.3702 0002665 274.0783 270.7797  1.00272647 45502
EXPRESS-AM5             
1 39487U 13077A   26158.52544556 -.00000265  00000+0  00000+0 0  9999
2 39487   0.0167 282.4300 0000588  90.2308 212.4681  1.00274003 46268
GSAT-14                 
1 39498U 14001A   26158.43153741  .00000000  00000+0  00000+0 0  9997
2 39498   0.0105 343.4955 0000894 308.8206 192.8693  1.00269286 45283
THAICOM 6               
1 39500U 14002A   26158.43240406 -.00000106  00000+0  00000+0 0  9995
2 39500   0.0803 106.3543 0004579 356.3660  27.2859  1.00269923 45369
TDRS 12                 
1 39504U 14004A   26158.48012242 -.00000257  00000+0  00000+0 0  9998
2 39504   3.9672  18.9198 0002711 197.4419 171.4786  1.00270698 44186
ABS-2                   
1 39508U 14006A   26158.43171073 -.00000072  00000+0  00000+0 0  9992
2 39508   0.0262  67.9688 0004193 355.8091  62.4069  1.00271667 45184
ATHENA-FIDUS            
1 39509U 14006B   26158.49564542  .00000169  00000+0  00000+0 0  9992
2 39509   0.0400 100.0606 0001499 349.4846  22.5918  1.00270377 44996
TURKSAT 4A              
1 39522U 14007A   26158.42514859  .00000161  00000+0  00000+0 0  9999
2 39522   0.0566 292.1700 0001410  38.3636 120.3535  1.00269901 44876
EXPRESS-AT1             
1 39612U 14010A   26158.50032543  .00000048  00000+0  00000+0 0  9991
2 39612   0.2319  85.7790 0003865  33.8218  17.6740  1.00301846 44726
EXPRESS-AT2             
1 39613U 14010B   26158.42789740  .00000093  00000+0  00000+0 0  9991
2 39613   0.0187 308.7915 0000260  72.9487  84.1408  1.00273558 44406
AMAZONAS 4A             
1 39616U 14011A   26158.47353573 -.00000238  00000+0  00000+0 0  9993
2 39616   0.0661 205.4788 0003859 258.4909 248.3726  1.00273810 44615
ASTRA 5B                
1 39617U 14011B   26158.27898719  .00000151  00000+0  00000+0 0  9991
2 39617   0.0579 316.5504 0002179 107.4906 315.5888  1.00269678 44565
IRNSS-1B                
1 39635U 14017A   26139.86086405  .00000103  00000+0  00000+0 0  9999
2 39635  28.9733 240.8911 0024226 185.2284 176.5740  1.00280229 44519
LUCH-5V                 
1 39727U 14023A   26157.86969556 -.00000254  00000+0  00000+0 0  9993
2 39727   5.1075  69.8531 0002817  29.5559 203.6692  1.00268252 44252
KAZSAT-3                
1 39728U 14023B   26158.42850405  .00000075  00000+0  00000+0 0  9999
2 39728   0.0274  53.1379 0000194 338.3093  77.1428  1.00272285 42366
EUTELSAT 3B             
1 39773U 14030A   26158.34619183  .00000034  00000+0  00000+0 0  9999
2 39773   0.0608 353.2510 0004070  84.5650 305.6672  1.00272475 43962
ASIASAT 8 (AMOS-7)      
1 40107U 14046A   26158.43777742 -.00000319  00000+0  00000+0 0  9992
2 40107   0.0135 295.1028 0001552 139.0688  84.6003  1.00271984102059
ASIASAT 6               
1 40141U 14052A   26158.36937416 -.00000348  00000+0  00000+0 0  9997
2 40141   0.0162 337.6164 0000798 113.2235  57.8303  1.00272267 42988
OPTUS 10                
1 40146U 14054A   26158.45739162 -.00000133  00000+0  00000+0 0  9994
2 40146   0.0951  33.6692 0002036  45.4696 137.3832  1.00268881 42935
MEASAT-3B               
1 40147U 14054B   26158.51503255 -.00000227  00000+0  00000+0 0  9998
2 40147   0.0443  43.1518 0003195  22.1906 107.4771  1.00272898 42818
HIMAWARI-8              
1 40267U 14060A   26158.52197777 -.00000261  00000+0  00000+0 0  9995
2 40267   0.0214  54.6209 0000853  44.6435 125.2473  1.00271080 42667
IRNSS-1C                
1 40269U 14061A   26157.85165249 -.00000148  00000+0  00000+0 0  9996
2 40269   6.4923  89.1238 0022605   1.2769 194.4828  1.00270962 42580
INTELSAT 30 (IS-30)     
1 40271U 14062A   26158.39802178 -.00000136  00000+0  00000+0 0  9996
2 40271   0.0230  43.2509 0000963 357.4539 263.3014  1.00269215  6694
ARSAT 1                 
1 40272U 14062B   26158.47396905 -.00000245  00000+0  00000+0 0  9993
2 40272   0.0427  64.9252 0001874   9.0832 280.7024  1.00270401 42521
