OBJECT_NAME,OBJECT_ID,EPOCH,MEAN_MOTION,ECCENTRICITY,INCLINATION,RA_OF_ASC_NODE,ARG_OF_PERICENTER,MEAN_ANOMALY,EPHEMERIS_TYPE,CLASSIFICATION_TYPE,NORAD_CAT_ID,ELEMENT_SET_NO,REV_AT_EPOCH,BSTAR,MEAN_MOTION_DOT,MEAN_MOTION_DDOT
GSAT-7,2013-044B,2026-06-07T10:21:24.832224,1.00270853,.0002979,0.0591,101.1393,189.8363,194.2127,0,U,39234,999,4516,0,-.62E-6,0
AMOS-4,2013-045A,2026-06-07T10:18:55.069920,1.00271156,.0002542,0.0269,90.0680,325.1041,60.3929,0,U,39237,999,4686,0,.22E-6,0
AEHF-3 (USA 246),2013-050A,2026-06-07T09:35:38.641056,1.00270153,.0087808,5.2705,67.2715,188.0765,20.0905,0,U,39256,999,4555,0,.43E-6,0
ASTRA 2E,2013-056A,2026-06-07T06:43:06.860928,1.00273263,.0002656,0.0687,320.3661,124.6345,299.9743,0,U,39285,999,4631,0,.165E-5,0
FM-6,2013-058A,2026-06-07T11:09:47.147328,1.00260608,.0001559,0.0094,45.4890,95.5877,165.8953,0,U,39360,999,4597,0,0,0
RADUGA-1M 3,2013-062A,2026-06-06T23:54:32.961312,1.00271649,.0001515,5.9312,72.4820,272.2358,304.3100,0,U,39375,999,4600,0,.166E-5,0
SES-8,2013-071A,2026-06-07T10:27:24.257088,1.00271674,.0002891,0.0155,312.3746,130.1456,65.1820,0,U,39460,999,4433,0,-.255E-5,0
INMARSAT 5-F1,2013-073A,2026-06-07T10:18:10.141920,1.00270603,.0000749,0.0183,1.6666,340.7315,130.6115,0,U,39476,999,4548,0,.42E-6,0
TKSAT-1 (TUPAC KATARI),2013-075A,2026-06-07T11:18:08.846208,1.00272647,.0002665,0.0354,153.3702,274.0783,270.7797,0,U,39481,999,4550,0,-.18E-5,0
EXPRESS-AM5,2013-077A,2026-06-07T12:36:38.496384,1.00274003,.0000588,0.0167,282.4300,90.2308,212.4681,0,U,39487,999,4626,0,-.265E-5,0
GSAT-14,2014-001A,2026-06-07T10:21:24.832224,1.00269286,.0000894,0.0105,343.4955,308.8206,192.8693,0,U,39498,999,4528,0,0,0
THAICOM 6,2014-002A,2026-06-07T10:22:39.710784,1.00269923,.0004579,0.0803,106.3543,356.3660,27.2859,0,U,39500,999,4536,0,-.106E-5,0
TDRS 12,2014-004A,2026-06-07T11:31:22.577088,1.00270698,.0002711,3.9672,18.9198,197.4419,171.4786,0,U,39504,999,4418,0,-.257E-5,0
ABS-2,2014-006A,2026-06-07T10:21:39.807072,1.00271667,.0004193,0.0262,67.9688,355.8091,62.4069,0,U,39508,999,4518,0,-.72E-6,0
ATHENA-FIDUS,2014-006B,2026-06-07T11:53:43.764288,1.00270377,.0001499,0.0400,100.0606,349.4846,22.5918,0,U,39509,999,4499,0,.169E-5,0
TURKSAT 4A,2014-007A,2026-06-07T10:12:12.838176,1.00269901,.000141,0.0566,292.1700,38.3636,120.3535,0,U,39522,999,4487,0,.161E-5,0
EXPRESS-AT1,2014-010A,2026-06-07T12:00:28.117152,1.00301846,.0003865,0.2319,85.7790,33.8218,17.6740,0,U,39612,999,4472,0,.48E-6,0
EXPRESS-AT2,2014-010B,2026-06-07T10:16:10.335360,1.00273558,.000026,0.0187,308.7915,72.9487,84.1408,0,U,39613,999,4440,0,.93E-6,0
AMAZONAS 4A,2014-011A,2026-06-07T11:21:53.487072,1.00273810,.0003859,0.0661,205.4788,258.4909,248.3726,0,U,39616,999,4461,0,-.238E-5,0
ASTRA 5B,2014-011B,2026-06-07T06:41:44.493216,1.00269678,.0002179,0.0579,316.5504,107.4906,315.5888,0,U,39617,999,4456,0,.151E-5,0
IRNSS-1B,2014-017A,2026-05-19T20:39:38.653920,1.00280229,.00242269,28.9733,240.8911,185.2284,176.5740,0,U,39635,999,4451,0,.103E-5,0
LUCH-5V,2014-023A,2026-06-06T20:52:21.696384,1.00268252,.0002817,5.1075,69.8531,29.5559,203.6692,0,U,39727,999,4425,0,-.254E-5,0
KAZSAT-3,2014-023B,2026-06-07T10:17:02.749920,1.00272285,.0000194,0.0274,53.1379,338.3093,77.1428,0,U,39728,999,4236,0,.75E-6,0
EUTELSAT 3B,2014-030A,2026-06-07T08:18:30.974112,1.00272475,.000407,0.0608,353.2510,84.5650,305.6672,0,U,39773,999,4396,0,.34E-6,0
ASIASAT 8 (AMOS-7),2014-046A,2026-06-07T10:30:23.969088,1.00271984,.0001552,0.0135,295.1028,139.0688,84.6003,0,U,40107,999,10205,0,-.319E-5,0
ASIASAT 6,2014-052A,2026-06-07T08:51:53.927424,1.00272267,.0000798,0.0162,337.6164,113.2235,57.8303,0,U,40141,999,4298,0,-.348E-5,0
OPTUS 10,2014-054A,2026-06-07T10:58:38.635968,1.00268881,.0002036,0.0951,33.6692,45.4696,137.3832,0,U,40146,999,4293,0,-.133E-5,0
MEASAT-3B,2014-054B,2026-06-07T12:21:38.812320,1.00272898,.0003195,0.0443,43.1518,22.1906,107.4771,0,U,40147,999,4281,0,-.227E-5,0
HIMAWARI-8,2014-060A,2026-06-07T12:31:38.879328,1.00271080,.0000853,0.0214,54.6209,44.6435,125.2473,0,U,40267,999,4266,0,-.261E-5,0
IRNSS-1C,2014-061A,2026-06-06T20:26:22.775136,1.00270962,.00226053,6.4923,89.1238,1.2769,194.4828,0,U,40269,999,4258,0,-.148E-5,0
INTELSAT 30 (IS-30),2014-062A,2026-06-07T09:33:09.081792,1.00269215,.0000963,0.0230,43.2509,357.4539,263.3014,0,U,40271,999,669,0,-.136E-5,0
ARSAT 1,2014-062B,2026-06-07T11:22:30.925920,1.00270401,.0001874,0.0427,64.9252,9.0832,280.7024,0,U,40272,999,4252,0,-.245E-5,0
